{
    "links": {
        "self": "http://www.neowsapp.com/rest/v1/neo/3789625?api_key=iIulBulltgU6a56xZRHN4H3l9WmuAYTsLGpBGhQ2"
    },
    "id": "3789625",
    "neo_reference_id": "3789625",
    "name": "(2017 WT13)",
    "designation": "2017 WT13",
    "nasa_jpl_url": "http://ssd.jpl.nasa.gov/sbdb.cgi?sstr=3789625",
    "absolute_magnitude_h": 23.3,
    "estimated_diameter": {
        "kilometers": {
            "estimated_diameter_min": 0.058150704,
            "estimated_diameter_max": 0.130028927
        },
        "meters": {
            "estimated_diameter_min": 58.1507039646,
            "estimated_diameter_max": 130.0289270043
        },
        "miles": {
            "estimated_diameter_min": 0.0361331611,
            "estimated_diameter_max": 0.0807962044
        },
        "feet": {
            "estimated_diameter_min": 190.7831555951,
            "estimated_diameter_max": 426.6041048727
        }
    },
    "is_potentially_hazardous_asteroid": false,
    "close_approach_data": [
        {
            "close_approach_date": "2017-10-29",
            "close_approach_date_full": "2017-Oct-29 12:28",
            "epoch_date_close_approach": 1509280080000,
            "relative_velocity": {
                "kilometers_per_second": "8.2557434122",
                "kilometers_per_hour": "29720.6762838311",
                "miles_per_hour": "18467.272438695"
            },
            "miss_distance": {
                "astronomical": "0.112128639",
                "lunar": "43.618040571",
                "kilometers": "16774205.56039893",
                "miles": "10423008.013928034"
            },
            "orbiting_body": "Earth"
        }
    ],
    "orbital_data": {
        "orbit_id": "4",
        "orbit_determination_date": "2017-12-29 06:22:22",
        "first_observation_date": "2017-11-20",
        "last_observation_date": "2017-12-16",
        "data_arc_in_days": 26,
        "observations_used": 46,
        "orbit_uncertainty": "7",
        "minimum_orbit_intersection": ".102633",
        "jupiter_tisserand_invariant": "4.132",
        "epoch_osculation": "2459000.5",
        "eccentricity": ".4276585372531239",
        "semi_major_axis": "1.669305613373647",
        "inclination": "7.721528740680081",
        "ascending_node_longitude": "89.10113626031077",
        "orbital_period": "787.775023890823",
        "perihelion_distance": ".9554128165298441",
        "perihelion_argument": "269.441130094978",
        "aphelion_distance": "2.383198410217449",
        "perihelion_time": "2458811.889246031351",
        "mean_anomaly": "86.19195756341192",
        "mean_motion": ".4569832618225937",
        "equinox": "J2000",
        "orbit_class": {
            "orbit_class_type": "APO",
            "orbit_class_description": "Near-Earth asteroid orbits which cross the Earth’s orbit similar to that of 1862 Apollo",
            "orbit_class_range": "a (semi-major axis) > 1.0 AU; q (perihelion) < 1.017 AU"
        }
    },
    "is_sentry_object": false
}